{"fetched_at":"2026-07-18T06:27:45.816Z","source":"https://celestrak.org/NORAD/elements/gp.php?GROUP=oneweb&FORMAT=JSON","constellation":"oneweb","records":[{"OBJECT_NAME":"ONEWEB-0116","OBJECT_ID":"2021-025E","EPOCH":"2026-07-17T19:49:42.894624","CLASSIFICATION_TYPE":"U","MEAN_MOTION":13.13470536,"ECCENTRICITY":0.00018471,"INCLINATION":87.8987,"RA_OF_ASC_NODE":314.1225,"ARG_OF_PERICENTER":102.9728,"MEAN_ANOMALY":257.1607,"EPHEMERIS_TYPE":0,"NORAD_CAT_ID":48046,"ELEMENT_SET_NO":999,"REV_AT_EPOCH":25767,"BSTAR":-0.00036718736,"MEAN_MOTION_DOT":-0.00000121,"MEAN_MOTION_DDOT":0},{"OBJECT_NAME":"ONEWEB-0150","OBJECT_ID":"2021-025F","EPOCH":"2026-07-17T21:05:17.300544","CLASSIFICATION_TYPE":"U","MEAN_MOTION":13.13469341,"ECCENTRICITY":0.00018651,"INCLINATION":87.8991,"RA_OF_ASC_NODE":314.1093,"ARG_OF_PERICENTER":94.8849,"MEAN_ANOMALY":265.2493,"EPHEMERIS_TYPE":0,"NORAD_CAT_ID":48047,"ELEMENT_SET_NO":999,"REV_AT_EPOCH":25757,"BSTAR":-0.0006832474,"MEAN_MOTION_DOT":-0.00000237,"MEAN_MOTION_DDOT":0},{"OBJECT_NAME":"ONEWEB-0107","OBJECT_ID":"2021-025G","EPOCH":"2026-07-17T21:07:43.135104","CLASSIFICATION_TYPE":"U","MEAN_MOTION":13.13471761,"ECCENTRICITY":0.00021222,"INCLINATION":87.899,"RA_OF_ASC_NODE":314.1052,"ARG_OF_PERICENTER":97.6674,"MEAN_ANOMALY":262.4696,"EPHEMERIS_TYPE":0,"NORAD_CAT_ID":48048,"ELEMENT_SET_NO":999,"REV_AT_EPOCH":25755,"BSTAR":-0.00084633392,"MEAN_MOTION_DOT":-0.00000296,"MEAN_MOTION_DDOT":0},{"OBJECT_NAME":"ONEWEB-0101","OBJECT_ID":"2021-025H","EPOCH":"2026-07-17T20:14:05.751168","CLASSIFICATION_TYPE":"U","MEAN_MOTION":13.13471277,"ECCENTRICITY":0.00021038,"INCLINATION":87.8976,"RA_OF_ASC_NODE":314.1253,"ARG_OF_PERICENTER":102.1055,"MEAN_ANOMALY":258.031,"EPHEMERIS_TYPE":0,"NORAD_CAT_ID":48049,"ELEMENT_SET_NO":999,"REV_AT_EPOCH":25752,"BSTAR":0.00077358275,"MEAN_MOTION_DOT":0.00000295,"MEAN_MOTION_DDOT":0},{"OBJECT_NAME":"ONEWEB-0113","OBJECT_ID":"2021-025J","EPOCH":"2026-07-17T20:34:59.384928","CLASSIFICATION_TYPE":"U","MEAN_MOTION":13.1389066,"ECCENTRICITY":0.00018681,"INCLINATION":87.8983,"RA_OF_ASC_NODE":314.0299,"ARG_OF_PERICENTER":95.5074,"MEAN_ANOMALY":264.6268,"EPHEMERIS_TYPE":0,"NORAD_CAT_ID":48050,"ELEMENT_SET_NO":999,"REV_AT_EPOCH":25763,"BSTAR":0.00052536279,"MEAN_MOTION_DOT":0.00000206,"MEAN_MOTION_DDOT":0},{"OBJECT_NAME":"ONEWEB-0112","OBJECT_ID":"2021-025K","EPOCH":"2026-07-17T06:37:28.170336","CLASSIFICATION_TYPE":"U","MEAN_MOTION":13.13470597,"ECCENTRICITY":0.0002213,"INCLINATION":87.8989,"RA_OF_ASC_NODE":314.2236,"ARG_OF_PERICENTER":102.0625,"MEAN_ANOMALY":258.0752,"EPHEMERIS_TYPE":0,"NORAD_CAT_ID":48051,"ELEMENT_SET_NO":999,"REV_AT_EPOCH":25754,"BSTAR":-0.0010299,"MEAN_MOTION_DOT":-0.00000363,"MEAN_MOTION_DDOT":0},{"OBJECT_NAME":"ONEWEB-0156","OBJECT_ID":"2021-025L","EPOCH":"2026-07-17T19:37:30.580320","CLASSIFICATION_TYPE":"U","MEAN_MOTION":13.1347239,"ECCENTRICITY":0.00020038,"INCLINATION":87.8987,"RA_OF_ASC_NODE":314.1258,"ARG_OF_PERICENTER":96.9785,"MEAN_ANOMALY":263.1572,"EPHEMERIS_TYPE":0,"NORAD_CAT_ID":48052,"ELEMENT_SET_NO":999,"REV_AT_EPOCH":25759,"BSTAR":-0.00072545518,"MEAN_MOTION_DOT":-0.00000252,"MEAN_MOTION_DDOT":0},{"OBJECT_NAME":"ONEWEB-0161","OBJECT_ID":"2021-025M","EPOCH":"2026-07-17T20:50:39.595776","CLASSIFICATION_TYPE":"U","MEAN_MOTION":13.13460045,"ECCENTRICITY":0.00021853,"INCLINATION":87.8989,"RA_OF_ASC_NODE":314.1162,"ARG_OF_PERICENTER":89.7206,"MEAN_ANOMALY":270.4174,"EPHEMERIS_TYPE":0,"NORAD_CAT_ID":48053,"ELEMENT_SET_NO":999,"REV_AT_EPOCH":25753,"BSTAR":0.0065648785,"MEAN_MOTION_DOT":0.0000241,"MEAN_MOTION_DDOT":0},{"OBJECT_NAME":"ONEWEB-0158","OBJECT_ID":"2021-025N","EPOCH":"2026-07-17T19:52:09.983712","CLASSIFICATION_TYPE":"U","MEAN_MOTION":13.13472099,"ECCENTRICITY":0.00018635,"INCLINATION":87.8985,"RA_OF_ASC_NODE":314.1221,"ARG_OF_PERICENTER":108.9835,"MEAN_ANOMALY":251.1496,"EPHEMERIS_TYPE":0,"NORAD_CAT_ID":48054,"ELEMENT_SET_NO":999,"REV_AT_EPOCH":25765,"BSTAR":-0.00010712943,"MEAN_MOTION_DOT":-2.6e-7,"MEAN_MOTION_DDOT":0},{"OBJECT_NAME":"ONEWEB-0157","OBJECT_ID":"2021-025P","EPOCH":"2026-07-17T20:28:42.946176","CLASSIFICATION_TYPE":"U","MEAN_MOTION":13.1347102,"ECCENTRICITY":0.00023098,"INCLINATION":87.8986,"RA_OF_ASC_NODE":314.1219,"ARG_OF_PERICENTER":96.2266,"MEAN_ANOMALY":263.9126,"EPHEMERIS_TYPE":0,"NORAD_CAT_ID":48055,"ELEMENT_SET_NO":999,"REV_AT_EPOCH":25759,"BSTAR":0.00086772935,"MEAN_MOTION_DOT":0.0000033,"MEAN_MOTION_DDOT":0},{"OBJECT_NAME":"ONEWEB-0162","OBJECT_ID":"2021-025Q","EPOCH":"2026-07-17T19:54:24.480864","CLASSIFICATION_TYPE":"U","MEAN_MOTION":13.13470156,"ECCENTRICITY":0.0001879,"INCLINATION":87.8983,"RA_OF_ASC_NODE":314.1268,"ARG_OF_PERICENTER":95.4827,"MEAN_ANOMALY":264.6517,"EPHEMERIS_TYPE":0,"NORAD_CAT_ID":48056,"ELEMENT_SET_NO":999,"REV_AT_EPOCH":25756,"BSTAR":-0.000088923243,"MEAN_MOTION_DOT":-2e-7,"MEAN_MOTION_DDOT":0},{"OBJECT_NAME":"ONEWEB-0155","OBJECT_ID":"2021-025R","EPOCH":"2026-07-17T20:04:20.828352","CLASSIFICATION_TYPE":"U","MEAN_MOTION":13.13474595,"ECCENTRICITY":0.00020232,"INCLINATION":87.8984,"RA_OF_ASC_NODE":314.122,"ARG_OF_PERICENTER":97.3882,"MEAN_ANOMALY":262.7477,"EPHEMERIS_TYPE":0,"NORAD_CAT_ID":48057,"ELEMENT_SET_NO":999,"REV_AT_EPOCH":25770,"BSTAR":0.0005296859,"MEAN_MOTION_DOT":0.00000206,"MEAN_MOTION_DDOT":0},{"OBJECT_NAME":"ONEWEB-0149","OBJECT_ID":"2021-025S","EPOCH":"2026-07-17T20:36:02.607264","CLASSIFICATION_TYPE":"U","MEAN_MOTION":13.13470009,"ECCENTRICITY":0.00018638,"INCLINATION":87.8988,"RA_OF_ASC_NODE":314.1217,"ARG_OF_PERICENTER":92.1017,"MEAN_ANOMALY":268.0326,"EPHEMERIS_TYPE":0,"NORAD_CAT_ID":48058,"ELEMENT_SET_NO":999,"REV_AT_EPOCH":25751,"BSTAR":0.00066595603,"MEAN_MOTION_DOT":0.00000256,"MEAN_MOTION_DDOT":0},{"OBJECT_NAME":"ONEWEB-0148","OBJECT_ID":"2021-025T","EPOCH":"2026-07-17T19:42:24.337728","CLASSIFICATION_TYPE":"U","MEAN_MOTION":13.13470359,"ECCENTRICITY":0.00018789,"INCLINATION":87.8979,"RA_OF_ASC_NODE":314.1343,"ARG_OF_PERICENTER":82.6459,"MEAN_ANOMALY":277.4883,"EPHEMERIS_TYPE":0,"NORAD_CAT_ID":48059,"ELEMENT_SET_NO":999,"REV_AT_EPOCH":25763,"BSTAR":-0.00074178677,"MEAN_MOTION_DOT":-0.00000258,"MEAN_MOTION_DDOT":0},{"OBJECT_NAME":"ONEWEB-0160","OBJECT_ID":"2021-025U","EPOCH":"2026-07-17T20:06:46.802016","CLASSIFICATION_TYPE":"U","MEAN_MOTION":13.1347018,"ECCENTRICITY":0.00014912,"INCLINATION":87.8979,"RA_OF_ASC_NODE":314.127,"ARG_OF_PERICENTER":119.2246,"MEAN_ANOMALY":240.9032,"EPHEMERIS_TYPE":0,"NORAD_CAT_ID":48060,"ELEMENT_SET_NO":999,"REV_AT_EPOCH":25758,"BSTAR":0.00066275493,"MEAN_MOTION_DOT":0.00000255,"MEAN_MOTION_DDOT":0},{"OBJECT_NAME":"ONEWEB-0163","OBJECT_ID":"2021-025V","EPOCH":"2026-07-17T19:44:50.621568","CLASSIFICATION_TYPE":"U","MEAN_MOTION":13.13470157,"ECCENTRICITY":0.00022181,"INCLINATION":87.8985,"RA_OF_ASC_NODE":314.127,"ARG_OF_PERICENTER":97.3171,"MEAN_ANOMALY":262.8211,"EPHEMERIS_TYPE":0,"NORAD_CAT_ID":48061,"ELEMENT_SET_NO":999,"REV_AT_EPOCH":25770,"BSTAR":-0.00035848354,"MEAN_MOTION_DOT":-0.00000118,"MEAN_MOTION_DDOT":0}]}
