ONEWEB-0116             
1 48046U 21025E   26198.82619091 -.00000121  00000+0 -36719-3 0  9998
2 48046  87.8987 314.1225 0001847 102.9728 257.1607 13.13470536257676
ONEWEB-0150             
1 48047U 21025F   26198.87867246 -.00000237  00000+0 -68325-3 0  9997
2 48047  87.8991 314.1093 0001865  94.8849 265.2493 13.13469341257572
ONEWEB-0107             
1 48048U 21025G   26198.88036036 -.00000296  00000+0 -84633-3 0  9999
2 48048  87.8990 314.1052 0002122  97.6674 262.4696 13.13471761257552
ONEWEB-0101             
1 48049U 21025H   26198.84312212  .00000295  00000+0  77358-3 0  9992
2 48049  87.8976 314.1253 0002103 102.1055 258.0310 13.13471277257527
ONEWEB-0113             
1 48050U 21025J   26198.85763177  .00000206  00000+0  52536-3 0  9998
2 48050  87.8983 314.0299 0001868  95.5074 264.6268 13.13890660257637
ONEWEB-0112             
1 48051U 21025K   26198.27602049 -.00000363  00000+0 -10299-2 0  9990
2 48051  87.8989 314.2236 0002213 102.0625 258.0752 13.13470597257546
ONEWEB-0156             
1 48052U 21025L   26198.81771505 -.00000252  00000+0 -72546-3 0  9996
2 48052  87.8987 314.1258 0002003  96.9785 263.1572 13.13472390257598
ONEWEB-0161             
1 48053U 21025M   26198.86851384  .00002410  00000+0  65649-2 0  9997
2 48053  87.8989 314.1162 0002185  89.7206 270.4174 13.13460045257531
ONEWEB-0158             
1 48054U 21025N   26198.82789333 -.00000026  00000+0 -10713-3 0  9994
2 48054  87.8985 314.1221 0001863 108.9835 251.1496 13.13472099257656
ONEWEB-0157             
1 48055U 21025P   26198.85327484  .00000330  00000+0  86773-3 0  9998
2 48055  87.8986 314.1219 0002309  96.2266 263.9126 13.13471020257595
ONEWEB-0162             
1 48056U 21025Q   26198.82945001 -.00000020  00000+0 -88923-4 0  9995
2 48056  87.8983 314.1268 0001879  95.4827 264.6517 13.13470156257560
ONEWEB-0155             
1 48057U 21025R   26198.83635218  .00000206  00000+0  52969-3 0  9997
2 48057  87.8984 314.1220 0002023  97.3882 262.7477 13.13474595257705
ONEWEB-0149             
1 48058U 21025S   26198.85836351  .00000256  00000+0  66596-3 0  9997
2 48058  87.8988 314.1217 0001863  92.1017 268.0326 13.13470009257517
ONEWEB-0148             
1 48059U 21025T   26198.82111502 -.00000258  00000+0 -74179-3 0  9999
2 48059  87.8979 314.1343 0001878  82.6459 277.4883 13.13470359257631
ONEWEB-0160             
1 48060U 21025U   26198.83804169  .00000255  00000+0  66275-3 0  9993
2 48060  87.8979 314.1270 0001491 119.2246 240.9032 13.13470180257581
ONEWEB-0163             
1 48061U 21025V   26198.82280812 -.00000118  00000+0 -35848-3 0  9998
2 48061  87.8985 314.1270 0002218  97.3171 262.8211 13.13470157257700
